SENTINEL-6              
1 46984U 20086A   23305.15685474 -.00000047  00000+0  61845-4 0  9999
2 46984  66.0418 326.9694 0007925 268.2699  91.7408 12.80930842137616
